     3.02           N: GNSS NAV DATA    R: GLONASS          RINEX VERSION / TYPE
NetR9 4.85          Receiver Operator   20160105 000000 UTC PGM / RUN BY / DATE
    17    17  1851     3                                    LEAP SECONDS
                                                            END OF HEADER
R08 2016 01 05 05 45 00 -.270446762443D-04  .000000000000D+00  .198000000000D+05
      .250588896484D+05  .202989578247D+00  .931322574615D-09  .000000000000D+00
      .455229785156D+04 -.117381095886D+00  .279396772385D-08  .600000000000D+01
     -.123502539062D+04  .356344604492D+01 -.931322574615D-09  .000000000000D+00
R10 2016 01 05 05 45 00  .451132655144D-05  .909494701773D-12  .198000000000D+05
      .410876220703D+04 -.205737018585D+01  .186264514923D-08  .000000000000D+00
      .107646367188D+05  .234390258789D+01  .186264514923D-08 -.700000000000D+01
     -.227798051758D+05  .730360984802D+00  .931322574615D-09  .000000000000D+00
R21 2016 01 05 05 45 00  .454084947705D-04  .181898940355D-11  .198000000000D+05
      .104502285156D+05  .451930999756D+00  .186264514923D-08  .000000000000D+00
      .222711416016D+05  .817159652710D+00  .186264514923D-08  .400000000000D+01
      .668765136719D+04 -.343175983429D+01 -.279396772385D-08  .000000000000D+00
R09 2016 01 05 05 45 00  .234562903643D-04  .000000000000D+00  .198000000000D+05
     -.935052392578D+04 -.109240627289D+01  .186264514923D-08  .000000000000D+00
      .197036665039D+05  .144183349609D+01  .931322574615D-09 -.200000000000D+01
     -.131544042969D+05  .294943428040D+01  .000000000000D+00  .000000000000D+00
R19 2016 01 05 05 45 00 -.144934281707D-03 -.909494701773D-12  .198000000000D+05
     -.725949707031D+04 -.817878723145D+00  .931322574615D-09  .000000000000D+00
      .107827368164D+05 -.289523792267D+01  .931322574615D-09  .300000000000D+01
     -.219433618164D+05 -.115240478516D+01  .931322574615D-09  .000000000000D+00
R07 2016 01 05 05 45 00 -.515021383762D-05  .000000000000D+00  .198000000000D+05
      .174990986328D+05 -.198630619049D+01  .931322574615D-09  .000000000000D+00
      .109345166016D+05 -.532582283020D+00  .931322574615D-09  .500000000000D+01
      .150366166992D+05  .270102787018D+01 -.279396772385D-08  .000000000000D+00
R01 2016 01 05 05 45 00 -.147082842886D-03  .000000000000D+00  .198000000000D+05
      .187432778320D+05  .225906276703D+01  .000000000000D+00  .000000000000D+00
     -.453865185547D+04  .350562095642D+00  .279396772385D-08  .100000000000D+01
     -.166920937500D+05  .244367885590D+01  .931322574615D-09  .000000000000D+00
R11 2016 01 05 05 45 00  .213589519262D-04  .909494701773D-12  .198000000000D+05
      .159929721680D+05 -.184805965424D+01  .000000000000D+00  .000000000000D+00
     -.464072802734D+04  .190258312225D+01  .279396772385D-08  .000000000000D+00
     -.193521777344D+05 -.197515296936D+01  .931322574615D-09  .000000000000D+00
R20 2016 01 05 06 15 00 -.212982296944D-03 -.909494701773D-12  .216000000000D+05
      .152811035156D+04 -.726059913635D+00  .279396772385D-08  .000000000000D+00
      .203540668945D+05 -.197631168365D+01  .186264514923D-08  .200000000000D+01
     -.153222910156D+05 -.269173240662D+01  .000000000000D+00  .000000000000D+00
R21 2016 01 05 06 15 00  .454112887383D-04  .181898940355D-11  .216000000000D+05
      .110637915039D+05  .188720703125D+00  .279396772385D-08  .000000000000D+00
      .229639633789D+05 -.397434234619D-01  .186264514923D-08  .400000000000D+01
      .331412597656D+03 -.358478260040D+01 -.186264514923D-08  .000000000000D+00
R08 2016 01 05 06 15 00 -.270456075668D-04  .000000000000D+00  .216000000000D+05
      .246255346680D+05 -.685557365417D+00  .931322574615D-09  .000000000000D+00
      .422765625000D+04 -.202464103699D+00  .186264514923D-08  .600000000000D+01
      .514403662109D+04  .347836589813D+01 -.186264514923D-08  .000000000000D+00
R10 2016 01 05 06 15 00  .451318919659D-05  .909494701773D-12  .216000000000D+05
      .878901367188D+03 -.151157569885D+01  .186264514923D-08  .000000000000D+00
      .150613569336D+05  .238230895996D+01  .186264514923D-08 -.700000000000D+01
     -.206039814453D+05  .167141532898D+01  .931322574615D-09  .000000000000D+00
R01 2016 01 05 06 15 00 -.147081911564D-03  .000000000000D+00  .216000000000D+05
      .222540537109D+05  .160593891144D+01  .931322574615D-09  .000000000000D+00
     -.426118017578D+04 -.151414871216D-01  .279396772385D-08  .100000000000D+01
     -.117047666016D+05  .306183815002D+01  .000000000000D+00  .000000000000D+00
R09 2016 01 05 06 15 00  .234562903643D-04  .000000000000D+00  .216000000000D+05
     -.107094228516D+05 -.432027816772D+00  .931322574615D-09  .000000000000D+00
      .218783276367D+05  .932958602905D+00  .000000000000D+00 -.200000000000D+01
     -.740327783203D+04  .339909362793D+01  .000000000000D+00  .000000000000D+00
R11 2016 01 05 06 15 00  .213598832488D-04  .000000000000D+00  .216000000000D+05
      .127144067383D+05 -.175151824951D+01  .186264514923D-08  .000000000000D+00
     -.679038574219D+03  .247287464142D+01  .279396772385D-08  .000000000000D+00
     -.221152114258D+05 -.107479095459D+01  .931322574615D-09  .000000000000D+00
R19 2016 01 05 06 15 00 -.144936144352D-03 -.909494701773D-12  .216000000000D+05
     -.918416601563D+04 -.130955791473D+01  .931322574615D-09  .000000000000D+00
      .553084863281D+04 -.288907814026D+01  .000000000000D+00  .300000000000D+01
     -.231424077148D+05 -.171234130859D+00  .186264514923D-08  .000000000000D+00
R22 2016 01 05 06 15 00  .187292695045D-03  .181898940355D-11  .221100000000D+05
      .145877343750D+05  .110665798187D+01  .931322574615D-09  .000000000000D+00
      .128304418945D+05  .198686695099D+01  .000000000000D+00 -.300000000000D+01
      .166105825195D+05 -.249531078339D+01 -.279396772385D-08  .000000000000D+00
R21 2016 01 05 06 45 00  .454131513834D-04  .181898940355D-11  .234000000000D+05
      .109941430664D+05 -.298874855042D+00  .279396772385D-08  .000000000000D+00
      .221893105469D+05 -.795216560364D+00  .931322574615D-09  .400000000000D+01
     -.605049951172D+04 -.346008968353D+01 -.931322574615D-09  .000000000000D+00
R10 2016 01 05 06 45 00  .451598316431D-05  .909494701773D-12  .234000000000D+05
     -.129535986328D+04 -.903397560120D+00  .186264514923D-08  .000000000000D+00
      .191626503906D+05  .212513637543D+01  .931322574615D-09 -.700000000000D+01
     -.168406254883D+05  .248295021057D+01  .000000000000D+00  .000000000000D+00
R20 2016 01 05 06 45 00 -.212985090911D-03 -.909494701773D-12  .234000000000D+05
     -.309458984375D+03 -.132081604004D+01  .186264514923D-08  .000000000000D+00
      .164369086914D+05 -.232809352875D+01  .931322574615D-09  .200000000000D+01
     -.195134072266D+05 -.193477535248D+01  .931322574615D-09  .000000000000D+00
R11 2016 01 05 06 45 00  .213617458940D-04  .000000000000D+00  .234000000000D+05
      .982547363281D+04 -.142628097534D+01  .186264514923D-08  .000000000000D+00
      .413785058594D+04  .283787918091D+01  .186264514923D-08  .000000000000D+00
     -.231707055664D+05 -.901288986206D-01  .931322574615D-09  .000000000000D+00
R01 2016 01 05 06 45 00 -.147081911564D-03  .000000000000D+00  .234000000000D+05
      .244230146484D+05  .784291267395D+00  .186264514923D-08  .000000000000D+00
     -.447500048828D+04 -.185158729553D+00  .279396772385D-08  .100000000000D+01
     -.581186816406D+04  .344329547882D+01 -.931322574615D-09  .000000000000D+00
R08 2016 01 05 06 45 00 -.270456075668D-04  .000000000000D+00  .234000000000D+05
      .226223544922D+05 -.152191066742D+01  .931322574615D-09  .000000000000D+00
      .396846728516D+04 -.473194122314D-01  .931322574615D-09  .600000000000D+01
      .111254882813D+05  .312464332581D+01 -.279396772385D-08  .000000000000D+00
R22 2016 01 05 06 45 00  .187295489013D-03  .181898940355D-11  .234000000000D+05
      .165324990234D+05  .100996017456D+01  .186264514923D-08  .000000000000D+00
      .157299531250D+05  .122302055359D+01  .931322574615D-09 -.300000000000D+01
      .115387080078D+05 -.310363960266D+01 -.279396772385D-08  .000000000000D+00
R21 2016 01 05 07 15 00  .454159453511D-04  .181898940355D-11  .252000000000D+05
      .989411816406D+04 -.941645622253D+00  .279396772385D-08  .000000000000D+00
      .202204721680D+05 -.135304546356D+01  .931322574615D-09  .400000000000D+01
     -.119636669922D+05 -.306736087799D+01  .000000000000D+00  .000000000000D+00
R22 2016 01 05 07 15 00  .187299214303D-03  .181898940355D-11  .252000000000D+05
      .180646572266D+05  .649912834167D+00  .279396772385D-08  .000000000000D+00
      .172258261719D+05  .446613311768D+00  .931322574615D-09 -.300000000000D+01
      .558106201172D+04 -.347327327728D+01 -.279396772385D-08  .000000000000D+00
R10 2016 01 05 07 15 00  .451877713203D-05  .909494701773D-12  .252000000000D+05
     -.240396972656D+04 -.345846176147D+00  .186264514923D-08  .000000000000D+00
      .225419726563D+05  .158636188507D+01  .000000000000D+00 -.700000000000D+01
     -.117805947266D+05  .310292053223D+01  .000000000000D+00  .000000000000D+00
R11 2016 01 05 07 15 00  .213626772165D-04  .000000000000D+00  .252000000000D+05
      .766760302734D+04 -.955459594727D+00  .279396772385D-08  .000000000000D+00
      .937003369141D+04  .292547798157D+01  .931322574615D-09  .000000000000D+00
     -.224345917969D+05  .902967453003D+00  .931322574615D-09  .000000000000D+00
R20 2016 01 05 07 15 00 -.212987884879D-03 -.909494701773D-12  .252000000000D+05
     -.321127783203D+04 -.188965225220D+01  .186264514923D-08  .000000000000D+00
      .121503076172D+05 -.238583374023D+01  .000000000000D+00  .200000000000D+01
     -.221972045898D+05 -.102774810791D+01  .931322574615D-09  .000000000000D+00
